UWE-3                   
1 39446U 13066AG  25262.45580157  .00003438  00000+0  32151-3 0  9996
2 39446  97.8318 212.9089 0053443 139.4064 221.1160 14.93703020637111
UNISAT-6                
1 40012U 14033C   25262.39414447  .00003350  00000+0  38400-3 0  9999
2 40012  97.7548  55.8603 0046217 239.4901 120.1747 14.85814759605919
DUCHIFAT-1              
1 40021U 14033M   25262.51458417  .00022812  00000+0  71649-3 0  9994
2 40021  98.0918 286.0173 0005979 334.6450  25.4496 15.33008744613911
QB50P1                  
1 40025U 14033R   25262.51225338  .00008930  00000+0  52244-3 0  9997
2 40025  98.0919 250.9302 0012221  73.9802 286.2771 15.12049327612036
LILACSAT-2              
1 40908U 15049K   25262.62423341  .00012256  00000+0  29615-3 0  9993
2 40908  97.5025 285.5771 0010098 143.5315 216.6621 15.41263046553937
FOX-1A (AO-85)          
1 40967U 15058D   25262.59861612  .00005586  00000+0  50306-3 0  9990
2 40967  64.7769  38.6318 0146213 161.0658 199.5973 14.88723233 73251
CAS-2T & KS-1Q          
1 41847U 16066G   25262.49924667  .00001282  00000+0  19170-3 0  9990
2 41847  98.4127 336.0536 0344366 229.9612 127.0900 14.43725340465726
ZHUHAI-1 02 (CAS-4B)    
1 42759U 17034B   25262.66620181  .00233502  00000+0  89409-3 0  9996
2 42759  43.0001  65.9353 0024358 297.2384  62.6008 15.85560832458669
ZHUHAI-1 01 (CAS-4A)    
1 42761U 17034D   25262.50336519  .00282967  37153-4  91727-3 0  9990
2 42761  43.0032  62.2443 0024642 302.6304  57.2193 15.89496390458672
RADFXSAT (FOX-1B)       
1 43017U 17073E   25262.61605684  .00007249  00000+0  36036-3 0  9998
2 43017  97.5082 130.8336 0167911 177.8826 182.3151 15.06365725424568
DIWATA-2B               
1 43678U 18084H   25262.68447333  .00001827  00000+0  15698-3 0  9993
2 43678  98.1073  82.7756 0008271 311.6312  48.4200 14.98772820375672
ES'HAIL 2               
1 43700U 18090A   25262.58631838  .00000000  00000+0  00000+0 0  9999
2 43700   0.0266 179.5396 0001261  30.4269  25.6554  1.00268498 24960
FOX-1CLIFF (AO-95)      
1 43770U 18099N   25262.42296431  .00009003  00000+0  43250-3 0  9994
2 43770  97.4820 319.4436 0009712 209.1641 150.9052 15.19026716372007
ITASAT                  
1 43786U 18099AE  25262.09707242  .00006977  00000+0  38525-3 0  9997
2 43786  97.4471 314.2212 0013418 209.2285 150.8198 15.14164762371811
JY1SAT (JO-97)          
1 43803U 18099AX  25261.70998149  .00012224  00000+0  52044-3 0  9996
2 43803  97.4566 319.9746 0008344 144.0330 216.1470 15.23099881372155
UWE-4                   
1 43880U 18111E   25262.48701625  .00016672  00000+0  59325-3 0  9993
2 43880  97.5821 177.0600 0009920 198.2959 161.7925 15.29000462369188
