[{"OBJECT_NAME":"UWE-3","OBJECT_ID":"2013-066AG","EPOCH":"2025-09-19T10:56:21.255648","MEAN_MOTION":14.9370302,"ECCENTRICITY":0.00534438,"INCLINATION":97.8318,"RA_OF_ASC_NODE":212.9089,"ARG_OF_PERICENTER":139.4064,"MEAN_ANOMALY":221.116,"EPHEMERIS_TYPE":0,"CLASSIFICATION_TYPE":"U","NORAD_CAT_ID":39446,"ELEMENT_SET_NO":999,"REV_AT_EPOCH":63711,"BSTAR":0.00032150937,"MEAN_MOTION_DOT":3.438e-5,"MEAN_MOTION_DDOT":0},{"OBJECT_NAME":"UNISAT-6","OBJECT_ID":"2014-033C","EPOCH":"2025-09-19T09:27:34.082208","MEAN_MOTION":14.85814759,"ECCENTRICITY":0.00462177,"INCLINATION":97.7548,"RA_OF_ASC_NODE":55.8603,"ARG_OF_PERICENTER":239.4901,"MEAN_ANOMALY":120.1747,"EPHEMERIS_TYPE":0,"CLASSIFICATION_TYPE":"U","NORAD_CAT_ID":40012,"ELEMENT_SET_NO":999,"REV_AT_EPOCH":60591,"BSTAR":0.00038400214,"MEAN_MOTION_DOT":3.35e-5,"MEAN_MOTION_DDOT":0},{"OBJECT_NAME":"DUCHIFAT-1","OBJECT_ID":"2014-033M","EPOCH":"2025-09-19T12:21:00.072288","MEAN_MOTION":15.33008744,"ECCENTRICITY":0.00059797,"INCLINATION":98.0918,"RA_OF_ASC_NODE":286.0173,"ARG_OF_PERICENTER":334.645,"MEAN_ANOMALY":25.4496,"EPHEMERIS_TYPE":0,"CLASSIFICATION_TYPE":"U","NORAD_CAT_ID":40021,"ELEMENT_SET_NO":999,"REV_AT_EPOCH":61391,"BSTAR":0.00071648871,"MEAN_MOTION_DOT":0.00022812,"MEAN_MOTION_DDOT":0},{"OBJECT_NAME":"QB50P1","OBJECT_ID":"2014-033R","EPOCH":"2025-09-19T12:17:38.692032","MEAN_MOTION":15.12049327,"ECCENTRICITY":0.00122214,"INCLINATION":98.0919,"RA_OF_ASC_NODE":250.9302,"ARG_OF_PERICENTER":73.9802,"MEAN_ANOMALY":286.2771,"EPHEMERIS_TYPE":0,"CLASSIFICATION_TYPE":"U","NORAD_CAT_ID":40025,"ELEMENT_SET_NO":999,"REV_AT_EPOCH":61203,"BSTAR":0.00052244494,"MEAN_MOTION_DOT":8.93e-5,"MEAN_MOTION_DDOT":0},{"OBJECT_NAME":"LILACSAT-2","OBJECT_ID":"2015-049K","EPOCH":"2025-09-19T14:58:53.766624","MEAN_MOTION":15.41263046,"ECCENTRICITY":0.00100984,"INCLINATION":97.5025,"RA_OF_ASC_NODE":285.5771,"ARG_OF_PERICENTER":143.5315,"MEAN_ANOMALY":216.6621,"EPHEMERIS_TYPE":0,"CLASSIFICATION_TYPE":"U","NORAD_CAT_ID":40908,"ELEMENT_SET_NO":999,"REV_AT_EPOCH":55393,"BSTAR":0.00029615036,"MEAN_MOTION_DOT":0.00012256,"MEAN_MOTION_DDOT":0},{"OBJECT_NAME":"FOX-1A (AO-85)","OBJECT_ID":"2015-058D","EPOCH":"2025-09-19T14:22:00.432768","MEAN_MOTION":14.88723233,"ECCENTRICITY":0.01462136,"INCLINATION":64.7769,"RA_OF_ASC_NODE":38.6318,"ARG_OF_PERICENTER":161.0658,"MEAN_ANOMALY":199.5973,"EPHEMERIS_TYPE":0,"CLASSIFICATION_TYPE":"U","NORAD_CAT_ID":40967,"ELEMENT_SET_NO":999,"REV_AT_EPOCH":7325,"BSTAR":0.00050305666,"MEAN_MOTION_DOT":5.586e-5,"MEAN_MOTION_DDOT":0},{"OBJECT_NAME":"CAS-2T & KS-1Q","OBJECT_ID":"2016-066G","EPOCH":"2025-09-19T11:58:54.912288","MEAN_MOTION":14.4372534,"ECCENTRICITY":0.03443669,"INCLINATION":98.4127,"RA_OF_ASC_NODE":336.0536,"ARG_OF_PERICENTER":229.9612,"MEAN_ANOMALY":127.09,"EPHEMERIS_TYPE":0,"CLASSIFICATION_TYPE":"U","NORAD_CAT_ID":41847,"ELEMENT_SET_NO":999,"REV_AT_EPOCH":46572,"BSTAR":0.00019170273,"MEAN_MOTION_DOT":1.282e-5,"MEAN_MOTION_DDOT":0},{"OBJECT_NAME":"ZHUHAI-1 02 (CAS-4B)","OBJECT_ID":"2017-034B","EPOCH":"2025-09-19T15:59:19.836384","MEAN_MOTION":15.85560832,"ECCENTRICITY":0.00243587,"INCLINATION":43.0001,"RA_OF_ASC_NODE":65.9353,"ARG_OF_PERICENTER":297.2384,"MEAN_ANOMALY":62.6008,"EPHEMERIS_TYPE":0,"CLASSIFICATION_TYPE":"U","NORAD_CAT_ID":42759,"ELEMENT_SET_NO":999,"REV_AT_EPOCH":45866,"BSTAR":0.00089409105,"MEAN_MOTION_DOT":0.00233502,"MEAN_MOTION_DDOT":0},{"OBJECT_NAME":"ZHUHAI-1 01 (CAS-4A)","OBJECT_ID":"2017-034D","EPOCH":"2025-09-19T12:04:50.752416","MEAN_MOTION":15.8949639,"ECCENTRICITY":0.00246422,"INCLINATION":43.0032,"RA_OF_ASC_NODE":62.2443,"ARG_OF_PERICENTER":302.6304,"MEAN_ANOMALY":57.2193,"EPHEMERIS_TYPE":0,"CLASSIFICATION_TYPE":"U","NORAD_CAT_ID":42761,"ELEMENT_SET_NO":999,"REV_AT_EPOCH":45867,"BSTAR":0.00091726759,"MEAN_MOTION_DOT":0.00282967,"MEAN_MOTION_DDOT":3.7152946e-5},{"OBJECT_NAME":"RADFXSAT (FOX-1B)","OBJECT_ID":"2017-073E","EPOCH":"2025-09-19T14:47:07.310976","MEAN_MOTION":15.06365725,"ECCENTRICITY":0.0167911,"INCLINATION":97.5082,"RA_OF_ASC_NODE":130.8336,"ARG_OF_PERICENTER":177.8826,"MEAN_ANOMALY":182.3151,"EPHEMERIS_TYPE":0,"CLASSIFICATION_TYPE":"U","NORAD_CAT_ID":43017,"ELEMENT_SET_NO":999,"REV_AT_EPOCH":42456,"BSTAR":0.00036035513,"MEAN_MOTION_DOT":7.249e-5,"MEAN_MOTION_DDOT":0},{"OBJECT_NAME":"DIWATA-2B","OBJECT_ID":"2018-084H","EPOCH":"2025-09-19T16:25:38.495712","MEAN_MOTION":14.9877282,"ECCENTRICITY":0.0008271,"INCLINATION":98.1073,"RA_OF_ASC_NODE":82.7756,"ARG_OF_PERICENTER":311.6312,"MEAN_ANOMALY":48.42,"EPHEMERIS_TYPE":0,"CLASSIFICATION_TYPE":"U","NORAD_CAT_ID":43678,"ELEMENT_SET_NO":999,"REV_AT_EPOCH":37567,"BSTAR":0.00015697601,"MEAN_MOTION_DOT":1.827e-5,"MEAN_MOTION_DDOT":0},{"OBJECT_NAME":"ES'HAIL 2","OBJECT_ID":"2018-090A","EPOCH":"2025-09-19T14:04:17.908032","MEAN_MOTION":1.00268498,"ECCENTRICITY":0.00012615,"INCLINATION":0.0266,"RA_OF_ASC_NODE":179.5396,"ARG_OF_PERICENTER":30.4269,"MEAN_ANOMALY":25.6554,"EPHEMERIS_TYPE":0,"CLASSIFICATION_TYPE":"U","NORAD_CAT_ID":43700,"ELEMENT_SET_NO":999,"REV_AT_EPOCH":2496,"BSTAR":0,"MEAN_MOTION_DOT":0,"MEAN_MOTION_DDOT":0},{"OBJECT_NAME":"FOX-1CLIFF (AO-95)","OBJECT_ID":"2018-099N","EPOCH":"2025-09-19T10:09:04.116384","MEAN_MOTION":15.19026716,"ECCENTRICITY":0.00097128,"INCLINATION":97.482,"RA_OF_ASC_NODE":319.4436,"ARG_OF_PERICENTER":209.1641,"MEAN_ANOMALY":150.9052,"EPHEMERIS_TYPE":0,"CLASSIFICATION_TYPE":"U","NORAD_CAT_ID":43770,"ELEMENT_SET_NO":999,"REV_AT_EPOCH":37200,"BSTAR":0.00043249752,"MEAN_MOTION_DOT":9.003e-5,"MEAN_MOTION_DDOT":0},{"OBJECT_NAME":"ITASAT","OBJECT_ID":"2018-099AE","EPOCH":"2025-09-19T02:19:47.057088","MEAN_MOTION":15.14164762,"ECCENTRICITY":0.0013418,"INCLINATION":97.4471,"RA_OF_ASC_NODE":314.2212,"ARG_OF_PERICENTER":209.2285,"MEAN_ANOMALY":150.8198,"EPHEMERIS_TYPE":0,"CLASSIFICATION_TYPE":"U","NORAD_CAT_ID":43786,"ELEMENT_SET_NO":999,"REV_AT_EPOCH":37181,"BSTAR":0.00038525071,"MEAN_MOTION_DOT":6.977e-5,"MEAN_MOTION_DDOT":0},{"OBJECT_NAME":"JY1SAT (JO-97)","OBJECT_ID":"2018-099AX","EPOCH":"2025-09-18T17:02:22.400736","MEAN_MOTION":15.23099881,"ECCENTRICITY":0.00083445,"INCLINATION":97.4566,"RA_OF_ASC_NODE":319.9746,"ARG_OF_PERICENTER":144.033,"MEAN_ANOMALY":216.147,"EPHEMERIS_TYPE":0,"CLASSIFICATION_TYPE":"U","NORAD_CAT_ID":43803,"ELEMENT_SET_NO":999,"REV_AT_EPOCH":37215,"BSTAR":0.00052044259,"MEAN_MOTION_DOT":0.00012224,"MEAN_MOTION_DDOT":0},{"OBJECT_NAME":"UWE-4","OBJECT_ID":"2018-111E","EPOCH":"2025-09-19T11:41:18.204000","MEAN_MOTION":15.29000462,"ECCENTRICITY":0.00099205,"INCLINATION":97.5821,"RA_OF_ASC_NODE":177.06,"ARG_OF_PERICENTER":198.2959,"MEAN_ANOMALY":161.7925,"EPHEMERIS_TYPE":0,"CLASSIFICATION_TYPE":"U","NORAD_CAT_ID":43880,"ELEMENT_SET_NO":999,"REV_AT_EPOCH":36918,"BSTAR":0.00059325334,"MEAN_MOTION_DOT":0.00016672,"MEAN_MOTION_DDOT":0}]
